{"epoch":1784710044,"count":18256,"objects":[{"id":"40042","name":"POLYITAN 1","type":"PAYLOAD","l1":"1 40042U 14033AJ  26202.56256245  .00018305  00000-0  55155-3 0  9999","l2":"2 40042  98.0940 232.1052 0007270  45.3929 314.7904 15.34371326658861"},{"id":"40043","name":"TIGRISAT","type":"PAYLOAD","l1":"1 40043U 14033AK  26202.34043068  .00001112  00000-0  13335-3 0  9995","l2":"2 40043  97.7873 351.5795 0048159 323.8673  35.9290 14.85261644650693"},{"id":"40045","name":"AEROCUBE 6A","type":"PAYLOAD","l1":"1 40045U 14033AM  26202.01754436  .00004459  00000-0  37401-3 0  9996","l2":"2 40045  97.7272   8.6174 0036095 260.8166  98.8973 14.98385750651687"},{"id":"40046","name":"AEROCUBE 6B","type":"PAYLOAD","l1":"1 40046U 14033AN  26201.98699824  .00003744  00000-0  30281-3 0  9996","l2":"2 40046  97.7207   8.4436 0038234 249.6783 110.0330 14.99832032651823"},{"id":"40055","name":"CANX-4","type":"PAYLOAD","l1":"1 40055U 14034C   26202.12915680  .00000562  00000-0  79323-4 0  9991","l2":"2 40055  98.3075  78.6814 0011373 261.4644  98.5279 14.81317693649556"},{"id":"40056","name":"CANX-5","type":"PAYLOAD","l1":"1 40056U 14034D   26202.46493018  .00000590  00000-0  82826-4 0  9998","l2":"2 40056  98.3077  79.0749 0011379 260.5242  99.4683 14.81335633640410"},{"id":"40074","name":"UKUBE 1","type":"PAYLOAD","l1":"1 40074U 14037F   26202.47401358  .00007142  00000-0  39739-3 0  9992","l2":"2 40074  98.4253 209.3629 0003140  77.7078 282.4502 15.14014918653745"},{"id":"40119","name":"BRITE-PL 2","type":"PAYLOAD","l1":"1 40119U 14049B   26202.58280843  .00001409  00000-0  13517-3 0  9997","l2":"2 40119  97.9121 314.8549 0013720   1.4208 358.7049 14.94699535646588"},{"id":"40965","name":"AEROCUBE 5C","type":"PAYLOAD","l1":"1 40965U 15058B   26202.50020060  .00003118  00000-0  27639-3 0  9991","l2":"2 40965  64.7664 155.8303 0132822  50.0316 311.2372 14.91605382370779"},{"id":"40966","name":"AEROCUBE 7","type":"PAYLOAD","l1":"1 40966U 15058C   26202.19714447  .00003869  00000-0  30990-3 0  9993","l2":"2 40966  64.7618 138.2701 0122462  48.4668 312.6873 14.95952137371045"},{"id":"40967","name":"FOX-1","type":"PAYLOAD","l1":"1 40967U 15058D   26202.62602761  .00003179  00000-0  28509-3 0  9994","l2":"2 40967  64.7738 171.9444 0132911  43.3691 317.7787 14.91117337118700"},{"id":"40968","name":"BISONSAT","type":"PAYLOAD","l1":"1 40968U 15058E   26202.30476932  .00004229  00000-0  33646-3 0  9994","l2":"2 40968  64.7744 152.0505 0121570  39.8424 321.1536 14.96127938121763"},{"id":"40970","name":"SNAP-3 ALICE","type":"PAYLOAD","l1":"1 40970U 15058G   26202.11829749  .00129152  00000-0  11032-2 0  9991","l2":"2 40970  64.7499 345.8781 0026124 344.8146  15.2217 15.68410894122191"},{"id":"40971","name":"LMRST-SAT","type":"PAYLOAD","l1":"1 40971U 15058H   26202.52310546  .00002469  00000-0  22644-3 0  9990","l2":"2 40971  64.7736 168.6682 0134395  45.4175 315.7812 14.90731202118673"},{"id":"40972","name":"SNAP-3 EDDIE","type":"PAYLOAD","l1":"1 40972U 15058J   26202.65374730  .00179408  00000-0  14170-2 0  9992","l2":"2 40972  64.7407 334.4579 0027487 347.0778  12.9664 15.70093885124428"},{"id":"40973","name":"PROPCUBE 3","type":"PAYLOAD","l1":"1 40973U 15058K   26202.27309057  .00003478  00000-0  28885-3 0  9993","l2":"2 40973  64.7679 146.0219 0126254  46.6871 314.4686 14.94450063119895"},{"id":"40974","name":"SINOD-D 1","type":"PAYLOAD","l1":"1 40974U 15058L   26202.05798875  .00009577  00000-0  45066-3 0  9996","l2":"2 40974  64.7583  64.0572 0082671  33.3214 327.3075 15.17027845120755"},{"id":"40975","name":"SNAP-3 JIMI","type":"PAYLOAD","l1":"1 40975U 15058M   26202.46798096  .00006648  00000-0  44927-3 0  9998","l2":"2 40975  64.7643 111.2786 0108298  41.8970 319.0370 15.02669421119370"},{"id":"40976","name":"PROPCUBE 1","type":"PAYLOAD","l1":"1 40976U 15058N   26202.57677215  .00002180  00000-0  20982-3 0  9992","l2":"2 40976  64.7719 188.6408 0132951  47.6665 313.5617 14.89352580121388"},{"id":"40977","name":"SINOD-D 3","type":"PAYLOAD","l1":"1 40977U 15058P   26202.31024029  .00003580  00000-0  30217-3 0  9991","l2":"2 40977  64.7712 169.2461 0121556  44.7926 316.2923 14.94207983119854"},{"id":"41849","name":"RAVAN","type":"PAYLOAD","l1":"1 41849U 16067B   26202.24802540  .00048686  00000-0  65043-3 0  9996","l2":"2 41849  97.9829  95.8383 0003122 189.7470 170.3724 15.57919015532997"},{"id":"41850","name":"CELTEE 1","type":"PAYLOAD","l1":"1 41850U 16067C   26202.57433891  .00004361  00000-0  20619-3 0  9995","l2":"2 41850  98.0630  71.4863 0002477 101.8311 258.3200 15.19981520531101"},{"id":"41851","name":"OPTICUBE 04","type":"PAYLOAD","l1":"1 41851U 16067D   26202.54386273  .00001673  00000-0  10776-3 0  9990","l2":"2 41851  98.0670  56.6174 0015669   7.0802 353.0644 15.09789410530359"},{"id":"41852","name":"AEROCUBE 8D","type":"PAYLOAD","l1":"1 41852U 16067E   26201.89006383  .00005027  00000-0  20585-3 0  9995","l2":"2 41852  98.0635  74.6276 0004234  42.1068 318.0492 15.24818070531203"},{"id":"41853","name":"AEROCUBE 8C","type":"PAYLOAD","l1":"1 41853U 16067F   26202.63119795  .00006543  00000-0  26477-3 0  9991","l2":"2 41853  98.0510  72.6091 0003815 314.9613  45.1313 15.25082700531315"},{"id":"42846","name":"CORVUS BC2","type":"PAYLOAD","l1":"1 42846U 17042X   26202.40395323  .00002231  00000-0  15492-3 0  9991","l2":"2 42846  97.4097   2.4340 0012810   1.5673 358.5593 15.06477664492211"},{"id":"42847","name":"CORVUS BC1","type":"PAYLOAD","l1":"1 42847U 17042Y   26202.39480565  .00002498  00000-0  17232-3 0  9992","l2":"2 42847  97.4130   3.2614 0011040 337.7893  22.2856 15.06644048492247"},{"id":"43016","name":"MAKERSAT 0","type":"PAYLOAD","l1":"1 43016U 17073D   26202.58721443  .00018877  00000-0  49378-3 0  9993","l2":"2 43016  97.4572  85.3909 0105730 149.6292 211.1134 15.33172565471736"},{"id":"43759","name":"SIRION PATHFINDER-2","type":"PAYLOAD","l1":"1 43759U 18099B   26202.60007834  .00003852  00000-0  21072-3 0  9998","l2":"2 43759  97.4236 250.8420 0009131 169.8683 190.2735 15.14813091417830"},{"id":"43767","name":"CORVUS BC4","type":"PAYLOAD","l1":"1 43767U 18099K   26202.05829117  .00003093  00000-0  18012-3 0  9999","l2":"2 43767  97.4050 244.0487 0006820 235.7627 124.2959 15.12729454417522"}]}