OBJECT_NAME,OBJECT_ID,EPOCH,MEAN_MOTION,ECCENTRICITY,INCLINATION,RA_OF_ASC_NODE,ARG_OF_PERICENTER,MEAN_ANOMALY,EPHEMERIS_TYPE,CLASSIFICATION_TYPE,NORAD_CAT_ID,ELEMENT_SET_NO,REV_AT_EPOCH,BSTAR,MEAN_MOTION_DOT,MEAN_MOTION_DDOT
POLYITAN-1,2014-033AJ,2026-07-21T13:30:05.395680,15.34371326,.00072698,98.0940,232.1052,45.3929,314.7904,0,U,40042,999,65886,.55155392E-3,.18305E-3,0
TIGRISAT,2014-033AK,2026-07-21T08:10:13.210752,14.85261644,.00481591,97.7873,351.5795,323.8673,35.9290,0,U,40043,999,65069,.13335494E-3,.1112E-4,0
AEROCUBE 6A,2014-033AM,2026-07-21T00:25:15.832704,14.98385750,.00360953,97.7272,8.6174,260.8166,98.8973,0,U,40045,999,65168,.37400587E-3,.4459E-4,0
AEROCUBE 6B,2014-033AN,2026-07-20T23:41:16.647936,14.99832032,.00382337,97.7207,8.4436,249.6783,110.0330,0,U,40046,999,65182,.30281197E-3,.3744E-4,0
CANX-4,2014-034C,2026-07-21T03:05:59.147520,14.81317693,.00113729,98.3075,78.6814,261.4644,98.5279,0,U,40055,999,64955,.79323269E-4,.562E-5,0
CANX-5,2014-034D,2026-07-21T11:09:29.967552,14.81335633,.00113788,98.3077,79.0749,260.5242,99.4683,0,U,40056,999,64041,.82826116E-4,.59E-5,0
UKUBE-1,2014-037F,2026-07-21T11:22:34.773312,15.14014918,.00031398,98.4253,209.3629,77.7078,282.4502,0,U,40074,999,65374,.397389E-3,.7142E-4,0
BRITE-PL2 (HEWELIUSZ),2014-049B,2026-07-21T13:59:14.648352,14.94699535,.001372,97.9121,314.8549,1.4208,358.7049,0,U,40119,999,64658,.13516696E-3,.1409E-4,0
AEROCUBE 5C,2015-058B,2026-07-21T12:00:17.331840,14.91605382,.01328223,64.7664,155.8303,50.0316,311.2372,0,U,40965,999,37077,.2763905E-3,.3118E-4,0
AEROCUBE 7,2015-058C,2026-07-21T04:43:53.282208,14.95952137,.01224621,64.7618,138.2701,48.4668,312.6873,0,U,40966,999,37104,.30989694E-3,.3869E-4,0
FOX-1A (AO-85),2015-058D,2026-07-21T15:01:28.785504,14.91117337,.01329113,64.7738,171.9444,43.3691,317.7787,0,U,40967,999,11870,.28509073E-3,.3179E-4,0
SINOD-D 1,2015-058E,2026-07-21T07:18:52.069248,14.96127938,.01215698,64.7744,152.0505,39.8424,321.1536,0,U,40968,999,12176,.33646189E-3,.4229E-4,0
SNAP-3 ALICE,2015-058G,2026-07-21T02:50:20.903136,15.68410894,.00261238,64.7499,345.8781,344.8146,15.2217,0,U,40970,999,12219,.11032274E-2,.129152E-2,0
LMRST-SAT,2015-058H,2026-07-21T12:33:16.311744,14.90731202,.01343954,64.7736,168.6682,45.4175,315.7812,0,U,40971,999,11867,.22643571E-3,.2469E-4,0
SNAP-3 EDDIE,2015-058J,2026-07-21T15:41:23.766720,15.70093885,.0027487,64.7407,334.4579,347.0778,12.9664,0,U,40972,999,12442,.14170279E-2,.179408E-2,0
PROPCUBE 3,2015-058K,2026-07-21T06:33:15.025248,14.94450063,.0126254,64.7679,146.0219,46.6871,314.4686,0,U,40973,999,11989,.28885053E-3,.3478E-4,0
BISONSAT,2015-058L,2026-07-21T01:23:30.228000,15.17027845,.00826706,64.7583,64.0572,33.3214,327.3075,0,U,40974,999,12075,.45065687E-3,.9577E-4,0
SNAP-3 JIMI,2015-058M,2026-07-21T11:13:53.554944,15.02669421,.01082977,64.7643,111.2786,41.8970,319.0370,0,U,40975,999,11937,.44926779E-3,.6648E-4,0
PROPCUBE 1 (FLORA),2015-058N,2026-07-21T13:50:33.113760,14.89352580,.0132951,64.7719,188.6408,47.6665,313.5617,0,U,40976,999,12138,.20981627E-3,.218E-4,0
SINOD-D 3,2015-058P,2026-07-21T07:26:44.761056,14.94207983,.01215558,64.7712,169.2461,44.7926,316.2923,0,U,40977,999,11985,.30217379E-3,.358E-4,0
RAVAN,2016-067B,2026-07-21T05:57:09.394560,15.57919015,.00031216,97.9829,95.8383,189.7470,170.3724,0,U,41849,999,53299,.65042756E-3,.48686E-3,0
CELTEE 1,2016-067C,2026-07-21T13:47:02.881824,15.19981520,.0002477,98.0630,71.4863,101.8311,258.3200,0,U,41850,999,53110,.20619398E-3,.4361E-4,0
OPTICUBE 04,2016-067D,2026-07-21T13:03:09.739872,15.09789410,.00156689,98.0670,56.6174,7.0802,353.0644,0,U,41851,999,53035,.10776327E-3,.1673E-4,0
AEROCUBE 8D,2016-067E,2026-07-20T21:21:41.514912,15.24818070,.00042339,98.0635,74.6276,42.1068,318.0492,0,U,41852,999,53120,.20584939E-3,.5027E-4,0
AEROCUBE 8C,2016-067F,2026-07-21T15:08:55.502880,15.25082700,.0003815,98.0510,72.6091,314.9613,45.1313,0,U,41853,999,53131,.26477418E-3,.6543E-4,0
CORVUS BC2,2017-042X,2026-07-21T09:41:41.559072,15.06477664,.001281,97.4097,2.4340,1.5673,358.5593,0,U,42846,999,49221,.15492464E-3,.2231E-4,0
CORVUS BC1,2017-042Y,2026-07-21T09:28:31.208160,15.06644048,.00110397,97.4130,3.2614,337.7893,22.2856,0,U,42847,999,49224,.17232345E-3,.2498E-4,0
MAKERSAT 0,2017-073D,2026-07-21T14:05:35.326752,15.33172565,.01057298,97.4572,85.3909,149.6292,211.1134,0,U,43016,999,47173,.49378E-3,.18877E-3,0
SIRION PATHFINDER-2,2018-099B,2026-07-21T14:24:06.768576,15.14813091,.00091313,97.4236,250.8420,169.8683,190.2735,0,U,43759,999,41783,.2107203E-3,.3852E-4,0
CORVUS BC4,2018-099K,2026-07-21T01:23:56.357088,15.12729454,.00068201,97.4050,244.0487,235.7627,124.2959,0,U,43767,999,41752,.18011767E-3,.3093E-4,0
